[Satellite]
VERSION=1.1
NAME=INNOSAT-2
NICKNAME=INNOSAT-2
TLE1=1 43738U 18096V   20158.08240240  .00002668  00000-0  93009-4 0  9992
TLE2=2 43738  97.4238 233.9039 0023968 165.8489 194.3428 15.30282625 84791
STATUS=0
